NORAD_CAT_ID,OBJECT_NAME,OBJECT_TYPE,EPOCH,MEAN_MOTION,ECCENTRICITY,INCLINATION,RA_OF_ASC_NODE,ARG_OF_PERICENTER,MEAN_ANOMALY,BSTAR,MEAN_MOTION_DOT,MEAN_MOTION_DDOT,TLE_LINE0,TLE_LINE1,TLE_LINE2,SEMIMAJOR_AXIS,PERIOD,APOGEE,PERIGEE,DECAYED
53976.0,STARLINK-5134,PAYLOAD,2022-11-11 14:00:01,15.73206798,0.0001813,53.2187,270.3441,25.6387,217.2095,0.0002304,0.00031847,0.0,0 STARLINK-5134,1 53976U 22125N   22315.58334491  .00031847  00000-0  23040-3 0  9997,2 53976  53.2187 270.3441 0001813  25.6387 217.2095 15.73206798  1301,6727.876,91.533,350.961,348.521,0.0
53976.0,STARLINK-5134,PAYLOAD,2022-11-11 22:00:00,15.73253573,0.0001754999999999,53.2186,268.6944,32.6512,299.1451,-0.00027536,-0.00039176,0.0,0 STARLINK-5134,1 53976U 22125N   22315.91667824 -.00039176  00000-0 -27536-3 0  9992,2 53976  53.2186 268.6944 0001755  32.6512 299.1451 15.73253573  1309,6727.7419999999975,91.53,350.788,348.427,0.0
53976.0,STARLINK-5134,PAYLOAD,2022-11-12 06:00:00,15.73202705,0.0001959,53.2183,267.047,30.8399,29.949,0.00030388,0.00042248,0.0,0 STARLINK-5134,1 53976U 22125N   22316.25001157  .00042248  00000-0  30388-3 0  9992,2 53976  53.2183 267.0470 0001959  30.8399  29.9490 15.73202705  6265,6727.887,91.533,351.07,348.434,0.0
53976.0,STARLINK-5134,PAYLOAD,2022-11-12 14:00:01,15.73213693,0.0001835,53.2181,265.396,32.5851,117.151,-0.00013763,-0.00019903,0.0,0 STARLINK-5134,1 53976U 22125N   22316.58334491 -.00019903  00000-0 -13763-3 0  9990,2 53976  53.2181 265.3960 0001835  32.5851 117.1510 15.73213693  6310,6727.856,91.532,350.956,348.487,0.0
53976.0,STARLINK-5134,PAYLOAD,2022-11-12 22:00:00,15.73237336,0.0001702,53.2184,263.7462,37.5134,201.1464,-0.00039948,-0.00056402,0.0,0 STARLINK-5134,1 53976U 22125N   22316.91667824 -.00056402  00000-0 -39948-3 0  9994,2 53976  53.2184 263.7462 0001702  37.5134 201.1464 15.73237336  1300,6727.7890000000025,91.531,350.7990000000001,348.509,0.0
53976.0,STARLINK-5134,PAYLOAD,2022-11-13 14:00:01,15.73130436,0.0001739,53.2181,260.4479,33.7402,22.7616,0.00030476,0.0004224,0.0,0 STARLINK-5134,1 53976U 22125N   22317.58334491  .00042240  00000-0  30476-3 0  9999,2 53976  53.2181 260.4479 0001739  33.7402  22.7616 15.73130436  1304,6728.094,91.537,351.129,348.788,0.0
53976.0,STARLINK-5134,PAYLOAD,2022-11-13 22:00:00,15.73178118,0.0001726,53.218,258.7987,38.49,106.8639,0.00041966,0.00058634,0.0,0 STARLINK-5134,1 53976U 22125N   22317.91667824  .00058634  00000-0  41966-3 0  9995,2 53976  53.2180 258.7987 0001726  38.4900 106.8639 15.73178118  1306,6727.958000000001,91.534,350.9840000000001,348.661,0.0
53976.0,STARLINK-5134,PAYLOAD,2022-11-14 14:00:01,15.73215536,0.0001604,53.2176,255.4993,35.2628,287.9973,0.00034478,0.00048077,0.0,0 STARLINK-5134,1 53976U 22125N   22318.58334491  .00048077  00000-0  34478-3 0  9990,2 53976  53.2176 255.4993 0001604  35.2628 287.9973 15.73215536  6627,6727.851,91.532,350.795,348.63699999999994,0.0
53976.0,STARLINK-5134,PAYLOAD,2022-11-14 22:00:00,15.73294308,0.0001609,53.2177,253.8503,37.9896,14.2013,-0.00056725,-0.00079802,0.0,0 STARLINK-5134,1 53976U 22125N   22318.91667824 -.00079802  00000-0 -56725-3 0  9997,2 53976  53.2177 253.8503 0001609  37.9896  14.2013 15.73294308  1308,6727.626,91.528,350.574,348.409,0.0
53976.0,STARLINK-5134,PAYLOAD,2022-11-15 06:00:00,15.73205824,0.0001868,53.2175,252.2027,34.3091,106.8745,-0.00023718,-0.00033784,0.0,0 STARLINK-5134,1 53976U 22125N   22319.25001157 -.00033784  00000-0 -23718-3 0  9991,2 53976  53.2175 252.2027 0001868  34.3091 106.8745 15.73205824  6732,6727.879,91.533,351.0,348.487,0.0
53976.0,STARLINK-5134,PAYLOAD,2022-11-15 14:00:01,15.73102347,0.0001568,53.2175,250.5514,40.411,189.6616,0.00031835,0.00044107,0.0,0 STARLINK-5134,1 53976U 22125N   22319.58334491  .00044107  00000-0  31835-3 0  9995,2 53976  53.2175 250.5514 0001568  40.4110 189.6616 15.73102347  6788,6728.174,91.539,351.094,348.9840000000001,0.0
53976.0,STARLINK-5134,PAYLOAD,2022-11-15 22:00:00,15.73157053,0.0001585,53.2172,248.9026,45.1806,273.7138,0.00021343,0.00029383,0.0,0 STARLINK-5134,1 53976U 22125N   22319.91667824  .00029383  00000-0  21343-3 0  9993,2 53976  53.2172 248.9026 0001585  45.1806 273.7138 15.73157053  1308,6728.018,91.536,350.949,348.816,0.0
53976.0,STARLINK-5134,PAYLOAD,2022-11-16 14:00:01,15.73154877,0.0001568,53.2168,245.5983,42.1081,94.6785,0.0021738,0.00315593,0.0,0 STARLINK-5134,1 53976U 22125N   22320.58335648  .00315593  00000-0  21738-2 0  9992,2 53976  53.2168 245.5983 0001568  42.1081  94.6785 15.73154877  1300,6728.024,91.536,350.944,348.834,0.0
53976.0,STARLINK-5134,PAYLOAD,2022-11-16 20:00:01,15.73468371,0.0001629,53.217,244.358,36.7964,76.625,-0.0026855,-0.00365806,0.0,0 STARLINK-5134,1 53976U 22125N   22320.83334491 -.00365806  00000-0 -26855-2 0  9994,2 53976  53.2170 244.3580 0001629  36.7964  76.6250 15.73468371  6983,6727.13,91.518,350.091,347.899,0.0
53976.0,STARLINK-5134,PAYLOAD,2022-11-16 22:00:08,15.73332337,0.0001720999999999,53.2172,243.9448,35.383,190.8217,-0.0014481,-0.00200235,0.0,0 STARLINK-5134,1 53976U 22125N   22320.91675926 -.00200235  00000-0 -14481-2 0  9990,2 53976  53.2172 243.9448 0001721  35.3830 190.8217 15.73332337  1308,6727.518,91.525,350.541,348.225,0.0
53976.0,STARLINK-5134,PAYLOAD,2022-11-17 04:00:00,15.73242728,0.0001672,53.2171,242.7186,41.0839,161.3275,-0.00042249,-0.00059606,0.0,0 STARLINK-5134,1 53976U 22125N   22321.16667824 -.00059606  00000-0 -42249-3 0  9994,2 53976  53.2171 242.7186 0001672  41.0839 161.3275 15.73242728  7038,6727.773,91.531,350.76300000000015,348.51300000000015,0.0
53976.0,STARLINK-5134,PAYLOAD,2022-11-17 12:00:00,15.7324037,0.0001460999999999,53.217,241.0674,43.6361,247.7614,-0.0005257,-0.00073882,0.0,0 STARLINK-5134,1 53976U 22125N   22321.50001157 -.00073882  00000-0 -52570-3 0  9993,2 53976  53.2170 241.0674 0001461  43.6361 247.7614 15.73240370  7087,6727.78,91.531,350.62800000000016,348.662,0.0
53976.0,STARLINK-5134,PAYLOAD,2022-11-17 14:00:01,15.73209455,0.0001386999999999,53.217,240.6546,44.6909,358.9528,-0.00017154,-0.00024634,0.0,0 STARLINK-5134,1 53976U 22125N   22321.58334491 -.00024634  00000-0 -17154-3 0  9991,2 53976  53.2170 240.6546 0001387  44.6909 358.9528 15.73209455  1303,6727.868,91.533,350.666,348.8,0.0
53976.0,STARLINK-5134,PAYLOAD,2022-11-17 22:00:00,15.73203677,0.0001419,53.2168,239.0058,43.8612,88.7075,0.00019409,0.0002671,0.0,0 STARLINK-5134,1 53976U 22125N   22321.91667824  .00026710  00000-0  19409-3 0  9997,2 53976  53.2168 239.0058 0001419  43.8612  88.7075 15.73203677  7152,6727.885,91.533,350.704,348.795,0.0
53976.0,STARLINK-5134,PAYLOAD,2022-11-18 14:00:01,15.73173717,0.0001471,53.2164,235.7061,52.4405,258.0384,0.00066328,0.00093403,0.0,0 STARLINK-5134,1 53976U 22125N   22322.58334491  .00093403  00000-0  66328-3 0  9997,2 53976  53.2164 235.7061 0001471  52.4405 258.0384 15.73173717  7256,6727.97,91.535,350.825,348.845,0.0
53976.0,STARLINK-5134,PAYLOAD,2022-11-18 22:00:00,15.73288396,0.0001467,53.2168,234.0575,49.8835,349.5119,-0.00078147,-0.00109295,0.0,0 STARLINK-5134,1 53976U 22125N   22322.91667824 -.00109295  00000-0 -78147-3 0  9994,2 53976  53.2168 234.0575 0001467  49.8835 349.5119 15.73288396  1306,6727.643,91.528,350.495,348.521,0.0
53976.0,STARLINK-5134,PAYLOAD,2022-11-19 06:00:00,15.73216481,0.0001845,53.2168,232.409,51.6798,76.6857,0.00038913,0.00054386,0.0,0 STARLINK-5134,1 53976U 22125N   22323.25001157  .00054386  00000-0  38913-3 0  9998,2 53976  53.2168 232.4090 0001845  51.6798  76.6857 15.73216481  7364,6727.848000000001,91.532,350.954,348.472,0.0
53976.0,STARLINK-5134,PAYLOAD,2022-11-19 14:00:01,15.73201094,0.0001516,53.2169,230.7574,54.1903,163.1588,0.00036527,0.00050957,0.0,0 STARLINK-5134,1 53976U 22125N   22323.58334491  .00050957  00000-0  36527-3 0  9993,2 53976  53.2169 230.7574 0001516  54.1903 163.1588 15.73201094  7417,6727.892,91.533,350.777,348.737,0.0
53976.0,STARLINK-5134,PAYLOAD,2022-11-19 22:00:00,15.73237494,0.0001469,53.2168,229.109,50.1737,256.1268,-0.00028979,-0.00041158,0.0,0 STARLINK-5134,1 53976U 22125N   22323.91667824 -.00041158  00000-0 -28979-3 0  9996,2 53976  53.2168 229.1090 0001469  50.1737 256.1268 15.73237494  1302,6727.788000000001,91.531,350.642,348.665,0.0
53976.0,STARLINK-5134,PAYLOAD,2022-11-20 06:00:00,15.73211607,0.000146,53.2162,227.4605,39.9613,355.2875,-0.00016997,-0.00024417,0.0,0 STARLINK-5134,1 53976U 22125N   22324.25001157 -.00024417  00000-0 -16997-3 0  9991,2 53976  53.2162 227.4605 0001460  39.9613 355.2875 15.73211607  7510,6727.861999999999,91.533,350.709,348.745,0.0
53976.0,STARLINK-5134,PAYLOAD,2022-11-20 14:00:01,15.73143038,0.0001217,53.2163,225.8091,50.3741,73.8117,0.00022391,0.00030843,0.0,0 STARLINK-5134,1 53976U 22125N   22324.58334491  .00030843  00000-0  22391-3 0  9990,2 53976  53.2163 225.8091 0001217  50.3741  73.8117 15.73143038  1306,6728.058000000001,91.536,350.741,349.10400000000016,0.0
53976.0,STARLINK-5134,PAYLOAD,2022-11-20 22:00:00,15.73174159,0.0001431999999999,53.2167,224.1609,52.37300000000001,160.6832,0.00019265,0.00026472,0.0,0 STARLINK-5134,1 53976U 22125N   22324.91667824  .00026472  00000-0  19265-3 0  9995,2 53976  53.2167 224.1609 0001432  52.3730 160.6832 15.73174159  1303,6727.969,91.535,350.797,348.87,0.0
53976.0,STARLINK-5134,PAYLOAD,2022-11-21 14:00:01,15.73149296,0.0001551,53.2168,220.8608,60.2809,330.6221,0.0007481,0.00105469,0.0,0 STARLINK-5134,1 53976U 22125N   22325.58334491  .00105469  00000-0  74810-3 0  9991,2 53976  53.2168 220.8608 0001551  60.2809 330.6221 15.73149296  7720,6728.04,91.536,350.9480000000001,348.861,0.0
53976.0,STARLINK-5134,PAYLOAD,2022-11-21 22:00:00,15.73223354,0.0001651,53.2166,219.213,56.7782,63.0278,0.00012978,0.0001764999999999,0.0,0 STARLINK-5134,1 53976U 22125N   22325.91667824  .00017650  00000-0  12978-3 0  9998,2 53976  53.2166 219.2130 0001651  56.7782  63.0278 15.73223354  1306,6727.829000000002,91.532,350.80400000000014,348.583,0.0
